C/2012 Q1 (Kowalski),e,45.2263,184.4279,139.1119,26.00351,0.0074329,0.63554015,9.7288,09/07.0/2015,2000,g  4.0,4.0
# From MPC 89726
C/2012 S1 (ISON),h,11/28.5968/2013,62.1016,295.7760,345.5983,1.000265,0.012932,2000,8.5,3.2
# From MPC 82720
P/2012 S2 (La Sagra),e,8.6000,52.0594,312.1659,4.407117,0.1065301,0.69220414,118.7321,09/07.0/2015,2000,g 17.0,4.0
# From MPC 88327
C/2012 S3 (PANSTARRS),h,08/30.8791/2013,112.9350,121.3018,183.7014,1.000047,2.307466,2000,10.0,4.0
# From MPC 88327
C/2012 S4 (PANSTARRS),h,06/27.9593/2013,126.5594,173.1159,163.5962,1.000425,4.346901,2000,8.5,4.0
# From MPC 82720
P/2012 SB6 (Lemmon),e,11.0498,9.1266,12.3768,3.895031,0.1282147,0.38899380,133.3396,09/07.0/2015,2000,g 14.0,4.0
# From MPC 88694
P/2012 T1 (PANSTARRS),e,11.0572,85.7294,300.0143,3.148935,0.1763837,0.23724317,192.7248,09/07.0/2015,2000,g 15.0,4.0
# From MPC 82320
P/2012 T2 (PANSTARRS),e,12.5560,73.7503,310.8960,5.745980,0.0715580,0.16088474,61.8692,09/07.0/2015,2000,g 10.0,4.0
# From MPC 80900
P/2012 T3 (PANSTARRS),e,9.5431,114.4061,195.5239,6.166742,0.0643606,0.61470988,79.2196,09/07.0/2015,2000,g 15.0,4.0
# From MPC 84023
C/2012 T4 (McNaught),e,24.0980,99.4263,219.8819,120.9771,0.0007407,0.98383416,0.0000,10/10.4580/2012,2000,g 13.5,4.0
# From MPC 84023
C/2012 T5 (Bressi),h,02/24.0763/2013,72.1611,230.4397,318.1203,1.000362,0.322428,2000,13.0,4.0
# From MPC 82720
C/2012 T6 (Kowalski),e,33.3191,186.1303,198.0336,14.15255,0.0185119,0.87467971,20.5062,09/07.0/2015,2000,g 15.0,4.0
# From MPC 87914
P/2012 TK8 (Tenagra),e,6.2840,289.5543,126.9606,4.176331,0.1154813,0.26521733,98.7089,09/07.0/2015,2000,g 13.0,4.0
# From MPC 95208
C/2012 U1 (PANSTARRS),e,56.3397,26.9776,70.1211,6541,0.0000019,0.99919515,0.0000,07/05.2614/2014,2000,g  7.5,4.0
# From MPC 82720
P/2012 U2 (PANSTARRS),e,10.6831,185.3085,229.1193,7.215657,0.0508499,0.50233903,51.7855,09/07.0/2015,2000,g 12.5,4.0
# From MPC 84024
P/2012 US27 (Siding Spring),e,39.2881,49.1936,1.2101,5.173057,0.0837690,0.64793951,78.8278,09/07.0/2015,2000,g 13.5,4.0
# From MPC 84932
C/2012 V1 (PANSTARRS),e,157.8391,85.3689,123.2505,3558,0.0000046,0.99941322,0.0000,07/21.3383/2013,2000,g 12.0,4.0
# From MPC 88695
C/2012 V2 (LINEAR),e,67.1635,262.1754,217.3525,715.6225,0.0000515,0.99796477,0.0000,08/16.4942/2013,2000,g  9.0,4.0
# From MPC 82721
P/2012 WA34 (Lemmon-PANSTARRS),e,6.1200,94.5150,352.8609,4.785954,0.0941350,0.33703922,90.1163,09/07.0/2015,2000,g 13.5,4.0
# From MPC 94670
C/2012 X1 (LINEAR),e,44.3631,113.1349,132.0924,157.5156,0.0004986,0.98985462,0.0000,02/21.6621/2014,2000,g  4.8,3.6
# From MPC 88327
C/2012 X2 (PANSTARRS),e,34.1226,271.0321,215.7266,20.61341,0.0105312,0.76946968,9.3643,09/07.0/2015,2000,g  9.0,4.0
# From MPC 83521
C/2012 Y1 (LINEAR),e,20.9307,193.2037,268.9721,37.96499,0.0042134,0.94676623,4.0531,09/07.0/2015,2000,g 15.0,4.0
# From MPC 83521
C/2012 Y3 (McNaught),e,73.4499,122.6569,235.7200,28.03182,0.0066409,0.93673359,7.3695,09/07.0/2015,2000,g 11.0,4.0
# From MPC 95208
C/2013 A1 (Siding Spring),h,10/25.2771/2014,129.0422,300.9788,2.4233,1.000249,1.398935,2000,8.2,2.4
# From MPC 84024
P/2013 A2 (Scotti),e,3.3655,355.8043,134.6671,4.005388,0.1229525,0.45576555,115.7551,09/07.0/2015,2000,g 15.5,4.0
# From MPC 82721
P/2013 AL76 (Catalina),e,144.8646,145.9496,27.2659,6.503201,0.0594310,0.68487272,59.2829,09/07.0/2015,2000,g 16.0,4.0
# From MPC 87915
C/2013 B2 (Catalina),h,07/01.5473/2013,43.4620,331.9535,156.4926,1.001518,3.736692,2000,11.0,4.0
# From MPC 95209
C/2013 C2 (Tenagra),e,21.3392,247.5245,308.7892,16.06106,0.0153124,0.43148157,0.1188,09/07.0/2015,2000,g  4.0,4.0
# From MPC 86642
P/2013 CU129 (PANSTARRS),e,12.1510,46.2119,211.9408,2.877595,0.2019108,0.72213610,153.6812,09/07.0/2015,2000,g 18.0,2.0
# From MPC 84024
C/2013 D1 (Holvorcem),e,10.0913,294.9679,252.6853,11.27401,0.0260367,0.78174360,22.8079,09/07.0/2015,2000,g 14.0,4.0
# From MPC 90270
C/2013 E1 (McNaught),e,158.7159,134.0357,311.6054,66755,0.0000001,0.99988332,0.0000,06/14.2969/2013,2000,g  5.5,4.0
# From MPC 88327
C/2013 E2 (Iwamoto),e,21.8696,182.4968,95.7272,218.2308,0.0003057,0.99353555,0.0000,03/09.0572/2013,2000,g 11.5,4.0
# From MPC 88695
P/2013 EW90 (Tenagra),e,31.8064,160.3357,346.3796,4.110869,0.1182507,0.19630378,125.1675,09/07.0/2015,2000,g 12.0,4.0
# From MPC 84626
C/2013 F1 (Boattini),h,12/02.4763/2012,79.6227,30.0907,92.0154,1.002642,1.860812,2000,13.0,4.0
# From MPC 88695
C/2013 F2 (Catalina),e,61.7766,344.2678,123.1051,1818,0.0000127,0.99657741,0.0000,04/19.4881/2013,2000,g  7.0,4.0
# From MPC 84933
C/2013 F3 (McNaught),e,85.4575,266.0899,18.7245,588.7845,0.0000690,0.99617473,0.0000,05/25.0249/2013,2000,g 12.0,4.0
# From MPC 91612
P/2013 G1 (Kowalski),e,5.4696,221.4563,51.2104,6.876759,0.0546548,0.51258527,34.7188,09/07.0/2015,2000,g 11.0,4.0
# From MPC 84933
C/2013 G2 (McNaught),h,12/06.4241/2012,95.9807,274.0864,293.8489,1.000188,2.151101,2000,11.5,4.0
# From MPC 95209
C/2013 G3 (PANSTARRS),h,11/15.2242/2014,64.6709,208.1176,76.5052,1.000746,3.852214,2000,9.0,4.0
# From MPC 84025
P/2013 G4 (PANSTARRS),e,5.9251,339.7414,214.5490,4.434733,0.1055366,0.41084978,99.0528,09/07.0/2015,2000,g 15.0,4.0
# From MPC 84318
C/2013 G5 (Catalina),e,40.6039,144.2310,165.6860,44129,0.0000001,0.99997895,0.0000,09/01.2610/2013,2000,g 14.0,4.0
# From MPC 87478
C/2013 G6 (Lemmon),e,124.0929,44.5680,215.7160,357.9304,0.0001455,0.99427298,0.0000,07/25.1107/2013,2000,g 13.5,4.0
# From MPC 95209
C/2013 G7 (McNaught),e,105.0990,48.3857,218.2818,1542,0.0000163,0.99696516,0.0000,03/18.7895/2014,2000,g  7.5,4.0
# From MPC 95209
C/2013 G8 (PANSTARRS),e,27.6216,240.9939,80.1406,1918,0.0000117,0.99732004,0.0000,11/14.5219/2013,2000,g  8.5,4.0
# From MPC 95209
C/2013 G9 (Tenagra),h,01/15.1369/2015,146.2399,35.7042,205.0014,1.001180,5.338007,2000,7.0,4.0
# From MPC 84933
C/2013 H1 (La Sagra),e,27.0807,84.9445,136.5926,189.9422,0.0003765,0.98606953,0.0000,05/19.8210/2013,2000,g 13.0,4.0
# From MPC 94670
C/2013 H2 (Boattini),e,128.3894,262.7312,35.9853,19175,0.0000004,0.99960891,0.0000,01/22.9919/2014,2000,g  6.5,4.0
# From MPC 91613
P/2013 J2 (McNaught),e,15.4954,289.3943,37.8943,6.238961,0.0632464,0.65556097,47.1325,09/07.0/2015,2000,g 13.0,4.0
# From MPC 87916
C/2013 J3 (McNaught),e,118.2091,200.7522,320.9548,1176,0.0000244,0.99660585,0.0000,02/22.4541/2013,2000,g 10.0,4.0
# From MPC 87066
P/2013 J4 (PANSTARRS),e,5.0352,84.0011,118.7706,2.475100,0.2531133,0.23099371,359.9443,11/04.0/2013,2000,g 14.0,4.0
# From MPC 84319
C/2013 J5 (Boattini),e,136.0081,256.7514,19.1296,1565,0.0000159,0.99686569,0.0000,11/29.2591/2012,2000,g 10.0,4.0
# From MPC 84627
C/2013 J6 (Catalina),e,85.0259,68.3931,125.6143,59.66025,0.0021388,0.95952727,1.8832,09/07.0/2015,2000,g 14.5,4.0
# From MPC 84319
C/2013 K1 (Christensen),e,42.3490,125.8930,171.3194,77.18399,0.0014535,0.98771804,0.0000,05/29.9926/2013,2000,g 18.0,4.0
# From MPC 87916
C/2013 L2 (Catalina),e,106.7758,285.8595,1.8341,7162,0.0000016,0.99932029,0.0000,05/10.2256/2012,2000,g  8.0,4.0
# From MPC 86229
P/2013 N3 (PANSTARRS),e,2.1707,17.6747,323.9190,7.414004,0.0488230,0.59151100,27.9479,09/07.0/2015,2000,g 13.0,4.0
# From MPC 88328
C/2013 N4 (Borisov),e,37.0346,322.5937,142.3438,48.00171,0.0029636,0.97474215,0.0000,08/21.3862/2013,2000,g 12.0,4.0
# From MPC 85834
P/2013 N5 (PANSTARRS),e,23.3268,187.2755,176.9186,6.824380,0.0552852,0.73143197,44.0705,09/07.0/2015,2000,g 17.0,4.0
# From MPC 87479
P/2013 O2 (PANSTARRS),e,13.3245,207.5617,213.6137,3.821490,0.1319335,0.43966684,83.1186,09/07.0/2015,2000,g 14.0,4.0
# From MPC 90767
C/2013 O3 (McNaught),e,102.8319,276.7383,337.9126,734.1304,0.0000496,0.99567013,0.0000,09/09.7528/2013,2000,g 11.5,4.0
# From MPC 85834
P/2013 P1 (PANSTARRS),e,18.7071,160.8039,137.9765,8.568841,0.0392935,0.60473647,36.2852,09/07.0/2015,2000,g 12.0,4.0
# From MPC 93584
C/2013 P2 (PANSTARRS),e,125.5750,2.0416,105.0184,1719,0.0000138,0.99834966,0.0000,02/16.9940/2014,2000,g 11.5,4.0
# From MPC 95209
C/2013 P3 (Palomar),h,11/23.3817/2014,93.9182,177.2760,177.1590,1.001202,8.646191,2000,5.5,4.0
# From MPC 95209
C/2013 P4 (PANSTARRS),e,4.2656,256.5947,113.5490,14.73393,0.0174271,0.59503543,6.8141,09/07.0/2015,2000,g  7.5,4.0
# From MPC 88696
C/2013 PE67 (Catalina-Spacewatch),e,116.7164,325.9486,59.9915,54.21064,0.0024693,0.96545352,1.5764,09/07.0/2015,2000,g 14.0,4.0
# From MPC 94279
C/2013 R1 (Lovejoy),e,64.0052,70.6967,67.1815,534.7520,0.0000797,0.99848165,0.0000,12/22.7527/2013,2000,g  7.0,4.0
# From MPC 94671
P/2013 R3 (Catalina-PANSTARRS),e,0.8950,342.7760,8.8929,3.042242,0.1857434,0.27300383,141.2544,09/07.0/2015,2000,g 14.0,4.0
# From unp
P/2013 R3-A (Catalina-PANSTARRS),e,0.8943,342.7439,8.9317,3.042106,0.1857559,0.27296837,141.2602,09/07.0/2015,2000,g  9.0,4.0
# From MPEC 2015-M77
P/2013 R3-B (Catalina-PANSTARRS),e,0.8956,342.7978,8.8672,3.042316,0.1857366,0.27302161,141.2515,09/07.0/2015,2000,g  9.0,4.0
# From MPC 86230
C/2013 S1 (Catalina),e,83.9626,221.5570,166.0573,10942,0.0000009,0.99974188,0.0000,08/02.8092/2013,2000,g 13.0,4.0
# From MPC 85835
P/2013 T1 (PANSTARRS),e,24.2117,10.1714,346.1170,5.876168,0.0691931,0.62276427,53.1322,09/07.0/2015,2000,g 16.5,4.0
# From MPC 86643
P/2013 T2 (Schwartz),e,9.5191,1.4249,344.7902,3.429379,0.1551961,0.52491459,125.3389,09/07.0/2015,2000,g 16.0,4.0
# From MPC 94671
C/2013 TW5 (Spacewatch),e,31.4089,319.7050,190.4523,328.3988,0.0001656,0.98224239,0.0000,08/18.2598/2014,2000,g  7.5,4.0
# From MPC 88696
P/2013 TL117 (Lemmon),e,9.3646,3.3414,112.2467,3.605123,0.1439872,0.68974753,81.4706,09/07.0/2015,2000,g 17.5,4.0
# From MPC 86643
C/2013 U1 (Catalina),e,23.9401,211.2345,143.1859,11.92531,0.0239331,0.79704584,15.7328,09/07.0/2015,2000,g 13.5,4.0
# From MPC 95209
C/2013 U2 (Holvorcem),e,43.1212,6.9544,107.4858,1090,0.0000274,0.99530251,0.0000,10/26.5232/2014,2000,g  7.5,4.0
# From MPC 94279
C/2013 UQ4 (Catalina),e,145.2365,317.6870,23.4493,61.32404,0.0020524,0.98231528,0.0000,07/05.8511/2014,2000,g 13.5,4.0
# From MPC 95209
